{"type": "FeatureCollection", "features": [ {"type": "Feature", "properties": {"norad_id": 43565, "name": "GSAT0222 (GALILEO 26)", "group": "gnss", "lat": 23.350218066193882, "lon": 2.8537751148373416, "alt_km": 23229.26229944273, "timestamp": "2025-12-16T21:38:57.417844+00:00", "meta": {"OBJECT_NAME": "GSAT0222 (GALILEO 26)", "OBJECT_ID": "2018-060B", "EPOCH": "2025-12-14T12:14:12.279840", "MEAN_MOTION": 1.70475606, "ECCENTRICITY": 0.00061133, "INCLINATION": 57.2308, "RA_OF_ASC_NODE": 346.7727, "ARG_OF_PERICENTER": 264.5011, "MEAN_ANOMALY": 95.4481, "EPHEMERIS_TYPE": 0, "CLASSIFICATION_TYPE": "U", "NORAD_CAT_ID": 43565, "ELEMENT_SET_NO": 999, "REV_AT_EPOCH": 4606, "BSTAR": 0, "MEAN_MOTION_DOT": -8.4e-07, "MEAN_MOTION_DDOT": 0}, "tle": {"line1": "1 43565U 18060B   25348.50986435 -.00000084  00000+0  00000+0 0  9991", "line2": "2 43565  57.2308 346.7727 0006113 264.5011  95.4481  1.70475606 46069"}}, "geometry": {"type": "Point", "coordinates": [2.8537751148373416, 23.350218066193882]}}, {"type": "Feature", "properties": {"norad_id": 43566, "name": "GSAT0219 (GALILEO 23)", "group": "gnss", "lat": -53.23221031464138, "lon": -133.72813778290376, "alt_km": 23213.739098751987, "timestamp": "2025-12-16T21:38:57.417858+00:00", "meta": {"OBJECT_NAME": "GSAT0219 (GALILEO 23)", "OBJECT_ID": "2018-060C", "EPOCH": "2025-12-15T21:42:00.874656", "MEAN_MOTION": 1.70475845, "ECCENTRICITY": 0.00058258, "INCLINATION": 57.2298, "RA_OF_ASC_NODE": 346.7365, "ARG_OF_PERICENTER": 287.9846, "MEAN_ANOMALY": 71.9699, "EPHEMERIS_TYPE": 0, "CLASSIFICATION_TYPE": "U", "NORAD_CAT_ID": 43566, "ELEMENT_SET_NO": 999, "REV_AT_EPOCH": 4606, "BSTAR": 0, "MEAN_MOTION_DOT": -8.2e-07, "MEAN_MOTION_DDOT": 0}, "tle": {"line1": "1 43566U 18060C   25349.90417679 -.00000082  00000+0  00000+0 0  9994", "line2": "2 43566  57.2298 346.7365 0005825 287.9846  71.9699  1.70475845 46065"}}, "geometry": {"type": "Point", "coordinates": [-133.72813778290376, -53.23221031464138]}}, {"type": "Feature", "properties": {"norad_id": 43567, "name": "GSAT0220 (GALILEO 24)", "group": "gnss", "lat": 48.627800063414455, "lon": 119.69520967891145, "alt_km": 23233.98969589589, "timestamp": "2025-12-16T21:38:57.417869+00:00", "meta": {"OBJECT_NAME": "GSAT0220 (GALILEO 24)", "OBJECT_ID": "2018-060D", "EPOCH": "2025-12-13T18:41:25.404000", "MEAN_MOTION": 1.70475925, "ECCENTRICITY": 0.00061008, "INCLINATION": 57.2299, "RA_OF_ASC_NODE": 346.7937, "ARG_OF_PERICENTER": 285.541, "MEAN_ANOMALY": 74.4106, "EPHEMERIS_TYPE": 0, "CLASSIFICATION_TYPE": "U", "NORAD_CAT_ID": 43567, "ELEMENT_SET_NO": 999, "REV_AT_EPOCH": 4601, "BSTAR": 0, "MEAN_MOTION_DOT": -8.5e-07, "MEAN_MOTION_DDOT": 0}, "tle": {"line1": "1 43567U 18060D   25347.77876625 -.00000085  00000+0  00000+0 0  9991", "line2": "2 43567  57.2299 346.7937 0006100 285.5410  74.4106  1.70475925 46015"}}, "geometry": {"type": "Point", "coordinates": [119.69520967891145, 48.627800063414455]}}, {"type": "Feature", "properties": {"norad_id": 43581, "name": "BEIDOU-3 M5 (C23)", "group": "gnss", "lat": -45.23281128264018, "lon": 55.463666935932494, "alt_km": 21535.74524731884, "timestamp": "2025-12-16T21:38:57.417880+00:00", "meta": {"OBJECT_NAME": "BEIDOU-3 M5 (C23)", "OBJECT_ID": "2018-062A", "EPOCH": "2025-12-12T05:55:01.607232", "MEAN_MOTION": 1.86228672, "ECCENTRICITY": 0.00021016, "INCLINATION": 54.0891, "RA_OF_ASC_NODE": 188.6597, "ARG_OF_PERICENTER": 354.1416, "MEAN_ANOMALY": 5.9159, "EPHEMERIS_TYPE": 0, "CLASSIFICATION_TYPE": "U", "NORAD_CAT_ID": 43581, "ELEMENT_SET_NO": 999, "REV_AT_EPOCH": 5015, "BSTAR": 0, "MEAN_MOTION_DOT": 7.9e-07, "MEAN_MOTION_DDOT": 0}, "tle": {"line1": "1 43581U 18062A   25346.24654638  .00000079  00000+0  00000+0 0  9990", "line2": "2 43581  54.0891 188.6597 0002101 354.1416   5.9159  1.86228672 50154"}}, "geometry": {"type": "Point", "coordinates": [55.463666935932494, -45.23281128264018]}}, {"type": "Feature", "properties": {"norad_id": 43582, "name": "BEIDOU-3 M6 (C24)", "group": "gnss", "lat": -21.520769438159917, "lon": 171.88708938873378, "alt_km": 21524.975495484272, "timestamp": "2025-12-16T21:38:57.417891+00:00", "meta": {"OBJECT_NAME": "BEIDOU-3 M6 (C24)", "OBJECT_ID": "2018-062B", "EPOCH": "2025-12-15T20:50:21.636672", "MEAN_MOTION": 1.86229812, "ECCENTRICITY": 0.00078211, "INCLINATION": 54.0887, "RA_OF_ASC_NODE": 188.5256, "ARG_OF_PERICENTER": 46.8936, "MEAN_ANOMALY": 313.2408, "EPHEMERIS_TYPE": 0, "CLASSIFICATION_TYPE": "U", "NORAD_CAT_ID": 43582, "ELEMENT_SET_NO": 999, "REV_AT_EPOCH": 5022, "BSTAR": 0, "MEAN_MOTION_DOT": 1.14e-06, "MEAN_MOTION_DDOT": 0}, "tle": {"line1": "1 43582U 18062B   25349.86830598  .00000114  00000+0  00000+0 0  9993", "line2": "2 43582  54.0887 188.5256 0007821  46.8936 313.2408  1.86229812 50224"}}, "geometry": {"type": "Point", "coordinates": [171.88708938873378, -21.520769438159917]}}, {"type": "Feature", "properties": {"norad_id": 43602, "name": "BEIDOU-3 M12 (C26)", "group": "gnss", "lat": 11.910945709123947, "lon": -164.006934329448, "alt_km": 21503.991160400165, "timestamp": "2025-12-16T21:38:57.417905+00:00", "meta": {"OBJECT_NAME": "BEIDOU-3 M12 (C26)", "OBJECT_ID": "2018-067A", "EPOCH": "2025-12-15T19:20:53.056032", "MEAN_MOTION": 1.86227726, "ECCENTRICITY": 0.00091938, "INCLINATION": 54.1832, "RA_OF_ASC_NODE": 187.259, "ARG_OF_PERICENTER": 40.8045, "MEAN_ANOMALY": 319.3313, "EPHEMERIS_TYPE": 0, "CLASSIFICATION_TYPE": "U", "NORAD_CAT_ID": 43602, "ELEMENT_SET_NO": 999, "REV_AT_EPOCH": 4970, "BSTAR": 0, "MEAN_MOTION_DOT": 1.15e-06, "MEAN_MOTION_DDOT": 0}, "tle": {"line1": "1 43602U 18067A   25349.80616963  .00000115  00000+0  00000+0 0  9994", "line2": "2 43602  54.1832 187.2590 0009193  40.8045 319.3313  1.86227726 49709"}}, "geometry": {"type": "Point", "coordinates": [-164.006934329448, 11.910945709123947]}}, {"type": "Feature", "properties": {"norad_id": 43603, "name": "BEIDOU-3 M11 (C25)", "group": "gnss", "lat": -51.685487627287294, "lon": 121.07511390970582, "alt_km": 21539.921211009252, "timestamp": "2025-12-16T21:38:57.417917+00:00", "meta": {"OBJECT_NAME": "BEIDOU-3 M11 (C25)", "OBJECT_ID": "2018-067B", "EPOCH": "2025-12-15T22:34:35.294592", "MEAN_MOTION": 1.86227255, "ECCENTRICITY": 0.00055828, "INCLINATION": 54.1803, "RA_OF_ASC_NODE": 187.2185, "ARG_OF_PERICENTER": 36.561, "MEAN_ANOMALY": 323.544, "EPHEMERIS_TYPE": 0, "CLASSIFICATION_TYPE": "U", "NORAD_CAT_ID": 43603, "ELEMENT_SET_NO": 999, "REV_AT_EPOCH": 4973, "BSTAR": 0, "MEAN_MOTION_DOT": 1.15e-06, "MEAN_MOTION_DDOT": 0}, "tle": {"line1": "1 43603U 18067B   25349.94068628  .00000115  00000+0  00000+0 0  9999", "line2": "2 43603  54.1803 187.2185 0005582  36.5610 323.5440  1.86227255 49734"}}, "geometry": {"type": "Point", "coordinates": [121.07511390970582, -51.685487627287294]}}, {"type": "Feature", "properties": {"norad_id": 43622, "name": "BEIDOU-3 M13 (C32)", "group": "gnss", "lat": -37.07367190355777, "lon": 38.66858551953845, "alt_km": 21516.795676308288, "timestamp": "2025-12-16T21:38:57.417928+00:00", "meta": {"OBJECT_NAME": "BEIDOU-3 M13 (C32)", "OBJECT_ID": "2018-072A", "EPOCH": "2025-12-12T16:12:36.163584", "MEAN_MOTION": 1.8623072, "ECCENTRICITY": 0.0005872, "INCLINATION": 56.4592, "RA_OF_ASC_NODE": 68.8222, "ARG_OF_PERICENTER": 298.9421, "MEAN_ANOMALY": 61.0187, "EPHEMERIS_TYPE": 0, "CLASSIFICATION_TYPE": "U", "NORAD_CAT_ID": 43622, "ELEMENT_SET_NO": 999, "REV_AT_EPOCH": 4918, "BSTAR": 0, "MEAN_MOTION_DOT": -7.4e-07, "MEAN_MOTION_DDOT": 0}, "tle": {"line1": "1 43622U 18072A   25346.67541856 -.00000074  00000+0  00000+0 0  9997", "line2": "2 43622  56.4592  68.8222 0005872 298.9421  61.0187  1.86230720 49189"}}, "geometry": {"type": "Point", "coordinates": [38.66858551953845, -37.07367190355777]}}, {"type": "Feature", "properties": {"norad_id": 43623, "name": "BEIDOU-3 M14 (C33)", "group": "gnss", "lat": 35.36294472443165, "lon": 96.71700783827552, "alt_km": 21520.542783657773, "timestamp": "2025-12-16T21:38:57.417939+00:00", "meta": {"OBJECT_NAME": "BEIDOU-3 M14 (C33)", "OBJECT_ID": "2018-072B", "EPOCH": "2025-12-14T16:31:43.622976", "MEAN_MOTION": 1.86230968, "ECCENTRICITY": 0.00033007, "INCLINATION": 56.4633, "RA_OF_ASC_NODE": 68.7492, "ARG_OF_PERICENTER": 334.4118, "MEAN_ANOMALY": 25.5906, "EPHEMERIS_TYPE": 0, "CLASSIFICATION_TYPE": "U", "NORAD_CAT_ID": 43623, "ELEMENT_SET_NO": 999, "REV_AT_EPOCH": 4921, "BSTAR": 0, "MEAN_MOTION_DOT": -8.3e-07, "MEAN_MOTION_DDOT": 0}, "tle": {"line1": "1 43623U 18072B   25348.68869934 -.00000083  00000+0  00000+0 0  9991", "line2": "2 43623  56.4633  68.7492 0003300 334.4118  25.5906  1.86230968 49219"}}, "geometry": {"type": "Point", "coordinates": [96.71700783827552, 35.36294472443165]}}, {"type": "Feature", "properties": {"norad_id": 43647, "name": "BEIDOU-3 M16 (C35)", "group": "gnss", "lat": -45.71609654207458, "lon": -101.19189765155141, "alt_km": 21530.05757848553, "timestamp": "2025-12-16T21:38:57.417949+00:00", "meta": {"OBJECT_NAME": "BEIDOU-3 M16 (C35)", "OBJECT_ID": "2018-078A", "EPOCH": "2025-12-13T05:39:20.780352", "MEAN_MOTION": 1.8623234, "ECCENTRICITY": 0.00072054, "INCLINATION": 54.2615, "RA_OF_ASC_NODE": 306.5038, "ARG_OF_PERICENTER": 19.3609, "MEAN_ANOMALY": 340.6562, "EPHEMERIS_TYPE": 0, "CLASSIFICATION_TYPE": "U", "NORAD_CAT_ID": 43647, "ELEMENT_SET_NO": 999, "REV_AT_EPOCH": 4869, "BSTAR": 0, "MEAN_MOTION_DOT": -9.7e-07, "MEAN_MOTION_DDOT": 0}, "tle": {"line1": "1 43647U 18078A   25347.23565718 -.00000097  00000+0  00000+0 0  9991", "line2": "2 43647  54.2615 306.5038 0007205  19.3609 340.6562  1.86232340 48698"}}, "geometry": {"type": "Point", "coordinates": [-101.19189765155141, -45.71609654207458]}}]}